$$SOE
2460154.500000000, A.D. 2023-Jul-29 00:00:00.0000, -2.765308378624929E+08, 4.710800808073680E+08, 3.033355259854639E+07,
2460161.500000000, A.D. 2023-Aug-05 00:00:00.0000, -2.846576076264631E+08, 4.680395981841289E+08, 3.034000640872732E+07,
2460168.500000000, A.D. 2023-Aug-12 00:00:00.0000, -2.927007367056464E+08, 4.648615040936499E+08, 3.033754160290414E+07,
2460175.500000000, A.D. 2023-Aug-19 00:00:00.0000, -3.006585778088281E+08, 4.615478661139368E+08, 3.032623313585806E+07,
2460182.500000000, A.D. 2023-Aug-26 00:00:00.0000, -3.085295254348512E+08, 4.581007415474206E+08, 3.030615627941239E+07,
2460189.500000000, A.D. 2023-Sep-02 00:00:00.0000, -3.163120144915068E+08, 4.545221773161682E+08, 3.027738658868387E+07,
2460196.500000000, A.D. 2023-Sep-09 00:00:00.0000, -3.240045189446305E+08, 4.508142097802652E+08, 3.023999985974717E+07,
2460203.500000000, A.D. 2023-Sep-16 00:00:00.0000, -3.316055503279810E+08, 4.469788644190307E+08, 3.019407205843997E+07,
2460210.500000000, A.D. 2023-Sep-23 00:00:00.0000, -3.391136556965417E+08, 4.430181556595922E+08, 3.013967920549548E+07,
2460217.500000000, A.D. 2023-Sep-30 00:00:00.0000, -3.465274153621705E+08, 4.389340880415760E+08, 3.007689734644109E+07,
2460224.500000000, A.D. 2023-Oct-07 00:00:00.0000, -3.538454427647851E+08, 4.347286581739050E+08, 3.000580277781197E+07,
2460231.500000000, A.D. 2023-Oct-14 00:00:00.0000, -3.610663854375454E+08, 4.304038541691341E+08, 2.992647216357362E+07,
2460238.500000000, A.D. 2023-Oct-21 00:00:00.0000, -3.681889238358539E+08, 4.259616541553024E+08, 2.983898237668502E+07,
2460245.500000000, A.D. 2023-Oct-28 00:00:00.0000, -3.752117694544853E+08, 4.214040261237174E+08, 2.974341038131115E+07,
2460252.500000000, A.D. 2023-Nov-04 00:00:00.0000, -3.821336634824759E+08, 4.167329283417589E+08, 2.963983320755181E+07,
2460259.500000000, A.D. 2023-Nov-11 00:00:00.0000, -3.889533758170286E+08, 4.119503097299590E+08, 2.952832795354033E+07,
2460266.500000000, A.D. 2023-Nov-18 00:00:00.0000, -3.956697042156506E+08, 4.070581101378918E+08, 2.940897178968242E+07,
2460273.500000000, A.D. 2023-Nov-25 00:00:00.0000, -4.022814735123492E+08, 4.020582605402391E+08, 2.928184196031529E+07,
2460280.500000000, A.D. 2023-Dec-02 00:00:00.0000, -4.087875348682613E+08, 3.969526831405029E+08, 2.914701577935445E+07,
2460287.500000000, A.D. 2023-Dec-09 00:00:00.0000, -4.151867649775038E+08, 3.917432913218953E+08, 2.900457060798365E+07,
2460294.500000000, A.D. 2023-Dec-16 00:00:00.0000, -4.214780649396629E+08, 3.864319894562796E+08, 2.885458378900290E+07,
2460301.500000000, A.D. 2023-Dec-23 00:00:00.0000, -4.276603584500134E+08, 3.810206732570810E+08, 2.869713256197697E+07,
2460308.500000000, A.D. 2023-Dec-30 00:00:00.0000, -4.337325906479670E+08, 3.755112317246066E+08, 2.853229416773994E+07,
2460315.500000000, A.D. 2024-Jan-06 00:00:00.0000, -4.396937293964866E+08, 3.699055483233918E+08, 2.836014611172865E+07,
2460322.500000000, A.D. 2024-Jan-13 00:00:00.0000, -4.455427658185140E+08, 3.642054995847862E+08, 2.818076614721982E+07,
2460329.500000000, A.D. 2024-Jan-20 00:00:00.0000, -4.512787128655604E+08, 3.584129542183301E+08, 2.799423211803013E+07,
2460336.500000000, A.D. 2024-Jan-27 00:00:00.0000, -4.569006039469219E+08, 3.525297733836795E+08, 2.780062189974739E+07,
2460343.500000000, A.D. 2024-Feb-03 00:00:00.0000, -4.624074920471961E+08, 3.465578111745048E+08, 2.760001340094844E+07,
2460350.500000000, A.D. 2024-Feb-10 00:00:00.0000, -4.677984490535083E+08, 3.404989150228167E+08, 2.739248457488129E+07,
2460357.500000000, A.D. 2024-Feb-17 00:00:00.0000, -4.730725651526204E+08, 3.343549260308651E+08, 2.717811342928933E+07,
2460364.500000000, A.D. 2024-Feb-24 00:00:00.0000, -4.782289482611107E+08, 3.281276792445756E+08, 2.695697803208257E+07,
2460371.500000000, A.D. 2024-Mar-02 00:00:00.0000, -4.832667234586218E+08, 3.218190038352724E+08, 2.672915650735441E+07,
2460378.500000000, A.D. 2024-Mar-09 00:00:00.0000, -4.881850322848741E+08, 3.154307231262153E+08, 2.649472700376756E+07,
2460385.500000000, A.D. 2024-Mar-16 00:00:00.0000, -4.929830315047284E+08, 3.089646546607048E+08, 2.625376761511040E+07,
2460392.500000000, A.D. 2024-Mar-23 00:00:00.0000, -4.976598914446288E+08, 3.024226114203572E+08, 2.600635635311492E+07,
2460399.500000000, A.D. 2024-Mar-30 00:00:00.0000, -5.022147961417832E+08, 2.958064041666665E+08, 2.575257137589055E+07,
2460406.500000000, A.D. 2024-Apr-06 00:00:00.0000, -5.066469450500394E+08, 2.891178415388080E+08, 2.549249117327124E+07,
2460413.500000000, A.D. 2024-Apr-13 00:00:00.0000, -5.109555527500529E+08, 2.823587287441272E+08, 2.522619445172256E+07,
2460420.500000000, A.D. 2024-Apr-20 00:00:00.0000, -5.151398476150615E+08, 2.755308675171235E+08, 2.495376002488564E+07,
2460427.500000000, A.D. 2024-Apr-27 00:00:00.0000, -5.191990709494877E+08, 2.686360567853388E+08, 2.467526680303006E+07,
2460434.500000000, A.D. 2024-May-04 00:00:00.0000, -5.231324765123724E+08, 2.616760933390996E+08, 2.439079381591351E+07,
2460441.500000000, A.D. 2024-May-11 00:00:00.0000, -5.269393301868281E+08, 2.546527724035560E+08, 2.410042023895240E+07,
2460448.500000000, A.D. 2024-May-18 00:00:00.0000, -5.306189097130612E+08, 2.475678881347771E+08, 2.380422541707964E+07,
2460455.500000000, A.D. 2024-May-25 00:00:00.0000, -5.341705044598907E+08, 2.404232340329515E+08, 2.350228888360702E+07,
2460462.500000000, A.D. 2024-Jun-01 00:00:00.0000, -5.375934151746427E+08, 2.332206032154738E+08, 2.319469036411881E+07,
2460469.500000000, A.D. 2024-Jun-08 00:00:00.0000, -5.408869534648100E+08, 2.259617885271746E+08, 2.288150974116381E+07,
2460476.500000000, A.D. 2024-Jun-15 00:00:00.0000, -5.440504406117164E+08, 2.186485830329163E+08, 2.256282698790766E+07,
2460483.500000000, A.D. 2024-Jun-22 00:00:00.0000, -5.470832067214035E+08, 2.112827820677130E+08, 2.223872225924027E+07,
2460490.500000000, A.D. 2024-Jun-29 00:00:00.0000, -5.499845923349640E+08, 2.038661850238939E+08, 2.190927618637958E+07,
2460497.500000000, A.D. 2024-Jul-06 00:00:00.0000, -5.527539498535324E+08, 1.964005944050925E+08, 2.157456993065041E+07,
2460504.500000000, A.D. 2024-Jul-13 00:00:00.0000, -5.553906428276943E+08, 1.888878149714889E+08, 2.123468504862220E+07,
2460511.500000000, A.D. 2024-Jul-20 00:00:00.0000, -5.578940450964719E+08, 1.813296541246874E+08, 2.088970344468495E+07,
2460518.500000000, A.D. 2024-Jul-27 00:00:00.0000, -5.602635404319922E+08, 1.737279225729209E+08, 2.053970739280224E+07,
2460525.500000000, A.D. 2024-Aug-03 00:00:00.0000, -5.624985224165827E+08, 1.660844349020046E+08, 2.018477957168943E+07,
2460532.500000000, A.D. 2024-Aug-10 00:00:00.0000, -5.645983943859125E+08, 1.584010100476752E+08, 1.982500309771154E+07,
2460539.500000000, A.D. 2024-Aug-17 00:00:00.0000, -5.665625693905175E+08, 1.506794716908978E+08, 1.946046155275468E+07,
2460546.500000000, A.D. 2024-Aug-24 00:00:00.0000, -5.683904701480757E+08, 1.429216485538252E+08, 1.909123900247793E+07,
2460553.500000000, A.D. 2024-Aug-31 00:00:00.0000, -5.700815288714101E+08, 1.351293745351785E+08, 1.871741998908044E+07,
2460560.500000000, A.D. 2024-Sep-07 00:00:00.0000, -5.716351866073393E+08, 1.273044888119840E+08, 1.833908947514071E+07,
2460567.500000000, A.D. 2024-Sep-14 00:00:00.0000, -5.730508920015091E+08, 1.194488369041599E+08, 1.795633281185830E+07,
2460574.500000000, A.D. 2024-Sep-21 00:00:00.0000, -5.743281015184507E+08, 1.115642731149618E+08, 1.756923595127334E+07,
2460581.500000000, A.D. 2024-Sep-28 00:00:00.0000, -5.754662816051774E+08, 1.036526611202369E+08, 1.717788568321344E+07,
2460588.500000000, A.D. 2024-Oct-05 00:00:00.0000, -5.764649091287106E+08, 9.571587270910728E+07, 1.678236956040682E+07,
2460595.500000000, A.D. 2024-Oct-12 00:00:00.0000, -5.773234704473046E+08, 8.775578765642798E+07, 1.638277578832275E+07,
2460602.500000000, A.D. 2024-Oct-19 00:00:00.0000, -5.780414608662170E+08, 7.977429445589069E+07, 1.597919321814213E+07,
2460609.500000000, A.D. 2024-Oct-26 00:00:00.0000, -5.786183845110292E+08, 7.177329111248733E+07, 1.557171138030215E+07,
2460616.500000000, A.D. 2024-Nov-02 00:00:00.0000, -5.790537543616240E+08, 6.375468584642168E+07, 1.516042052290360E+07,
2460623.500000000, A.D. 2024-Nov-09 00:00:00.0000, -5.793470923504012E+08, 5.572039772965726E+07, 1.474541164786363E+07,
2460630.500000000, A.D. 2024-Nov-16 00:00:00.0000, -5.794979294989650E+08, 4.767235725577533E+07, 1.432677654252857E+07,
2460637.500000000, A.D. 2024-Nov-23 00:00:00.0000, -5.795058060465593E+08, 3.961250679361539E+07, 1.390460779844766E+07,
2460644.500000000, A.D. 2024-Nov-30 00:00:00.0000, -5.793702713622124E+08, 3.154280088240135E+07, 1.347899879481827E+07,
2460651.500000000, A.D. 2024-Dec-07 00:00:00.0000, -5.790908832213882E+08, 2.346520678928462E+07, 1.305004364262839E+07,
2460658.500000000, A.D. 2024-Dec-14 00:00:00.0000, -5.786672071359915E+08, 1.538170655339676E+07, 1.261783725281831E+07,
2460665.500000000, A.D. 2024-Dec-21 00:00:00.0000, -5.780988180570135E+08, 7.294299275523103E+06, 1.218247563986114E+07,
2460672.500000000, A.D. 2024-Dec-28 00:00:00.0000, -5.773853024786950E+08, -7.949993136818311E+05, 1.174405603752362E+07,
2460679.500000000, A.D. 2025-Jan-04 00:00:00.0000, -5.765262583474886E+08, -8.884157630078249E+06, 1.130267678304310E+07,
2460686.500000000, A.D. 2025-Jan-11 00:00:00.0000, -5.755212945968443E+08, -1.697112769710740E+07, 1.085843727269329E+07,
2460693.500000000, A.D. 2025-Jan-18 00:00:00.0000, -5.743700312252558E+08, -2.505384421078073E+07, 1.041143799799804E+07,
2460700.500000000, A.D. 2025-Jan-25 00:00:00.0000, -5.730720996752045E+08, -3.313022368333823E+07, 9.961780601729743E+06,
2460707.500000000, A.D. 2025-Feb-01 00:00:00.0000, -5.716271433245631E+08, -4.119816369566020E+07, 9.509567934128247E+06,
2460714.500000000, A.D. 2025-Feb-08 00:00:00.0000, -5.700348180329924E+08, -4.925554223873138E+07, 9.054904105859365E+06,
2460721.500000000, A.D. 2025-Feb-15 00:00:00.0000, -5.682947927154871E+08, -5.730021716422417E+07, 8.597894533663686E+06,
$$EOE